NORAD_CAT_ID,OBJECT_NAME,OBJECT_TYPE,EPOCH,MEAN_MOTION,ECCENTRICITY,INCLINATION,RA_OF_ASC_NODE,ARG_OF_PERICENTER,MEAN_ANOMALY,BSTAR,MEAN_MOTION_DOT,MEAN_MOTION_DDOT,TLE_LINE0,TLE_LINE1,TLE_LINE2,SEMIMAJOR_AXIS,PERIOD,APOGEE,PERIGEE,DECAYED
53866.0,STARLINK-4762,PAYLOAD,2024-03-01 11:20:09,15.08850272,0.0001434,53.2179,338.3131,91.1817,268.934,0.0002112,3.076e-05,0.0,0 STARLINK-4762,1 53866U 22114BA  24061.47233681  .00003076  00000-0  21120-3 0  9990,2 53866  53.2179 338.3131 0001434  91.1817 268.9340 15.08850272 81940,6917.849,95.437,540.706,538.722,0.0
53866.0,STARLINK-4762,PAYLOAD,2024-03-01 22:27:52,15.08837638,0.0001631,53.2183,336.2314,94.1818,265.936,0.00034326,5.179e-05,0.0,0 STARLINK-4762,1 53866U 22114BA  24061.93602325  .00005179  00000-0  34326-3 0  9994,2 53866  53.2183 336.2314 0001631  94.1818 265.9360 15.08837638 82017,6917.888,95.438,540.881,538.624,0.0
53866.0,STARLINK-4762,PAYLOAD,2024-03-02 01:38:38,15.08844075,0.0001549,53.2182,335.6431,93.5855,266.5315,0.00036588,5.54e-05,0.0,0 STARLINK-4762,1 53866U 22114BA  24062.06849938  .00005540  00000-0  36588-3 0  9996,2 53866  53.2182 335.6431 0001549  93.5855 266.5315 15.08844075 81492,6917.868,95.437,540.805,538.661,0.0
53866.0,STARLINK-4762,PAYLOAD,2024-03-02 22:18:39,15.08846939,0.0001698,53.2178,331.7748,65.8476,294.2694,-2.3638e-06,-3.26e-06,0.0,0 STARLINK-4762,1 53866U 22114BA  24062.92962361 -.00000326  00000-0 -23638-5 0  9990,2 53866  53.2178 331.7748 0001698  65.8476 294.2694 15.08846939 82165,6917.859,95.437,540.899,538.55,0.0
53866.0,STARLINK-4762,PAYLOAD,2024-03-03 03:04:48,15.08852633,0.0001625,53.2186,330.8813,77.3558,282.7616,-9.6741e-06,-4.42e-06,0.0,0 STARLINK-4762,1 53866U 22114BA  24063.12833718 -.00000442  00000-0 -96741-5 0  9990,2 53866  53.2186 330.8813 0001625  77.3558 282.7616 15.08852633 81653,6917.842,95.437,540.831,538.583,0.0
53866.0,STARLINK-4762,PAYLOAD,2024-03-03 11:01:44,15.08849688,0.0001597,53.2187,329.3954,84.1847,275.9327,-1.7075e-05,-5.6e-06,0.0,0 STARLINK-4762,1 53866U 22114BA  24063.45953749 -.00000560  00000-0 -17075-4 0  9996,2 53866  53.2187 329.3954 0001597  84.1847 275.9327 15.08849688 82243,6917.851,95.437,540.821,538.611,0.0
53866.0,STARLINK-4762,PAYLOAD,2024-03-04 10:52:29,15.08857023,0.0001503,53.2189,324.9323,94.0932,266.0231,8.2009e-05,1.018e-05,0.0,0 STARLINK-4762,1 53866U 22114BA  24064.45312236  .00001018  00000-0  82009-4 0  9993,2 53866  53.2189 324.9323 0001503  94.0932 266.0231 15.08857023 81851,6917.828,95.436,540.733,538.654,0.0
53866.0,STARLINK-4762,PAYLOAD,2024-03-04 22:00:13,15.08827486,0.0001427,53.2184,322.8513,98.5159,261.5995,-6.122e-05,-1.262e-05,0.0,0 STARLINK-4762,1 53866U 22114BA  24064.91682419 -.00001262  00000-0 -61220-4 0  9992,2 53866  53.2184 322.8513 0001427  98.5159 261.5995 15.08827486 82464,6917.919,95.438,540.771,538.796,0.0
53866.0,STARLINK-4762,PAYLOAD,2024-03-04 23:35:36,15.08826068,0.0001387,53.2184,322.5548,98.8555,261.2594,-6.7796e-05,-1.366e-05,0.0,0 STARLINK-4762,1 53866U 22114BA  24064.98306548 -.00001366  00000-0 -67796-4 0  9994,2 53866  53.2184 322.5548 0001387  98.8555 261.2594 15.08826068 81935,6917.923,95.438,540.747,538.828,0.0
53866.0,STARLINK-4762,PAYLOAD,2024-03-05 21:51:00,15.08838498,0.0001559,53.2184,318.3926,103.9288,256.1878,7.075e-05,8.38e-06,0.0,0 STARLINK-4762,1 53866U 22114BA  24065.91041859  .00000838  00000-0  70750-4 0  9994,2 53866  53.2184 318.3926 0001559 103.9288 256.1878 15.08838498 82074,6917.885,95.438,540.828,538.671,0.0
53866.0,STARLINK-4762,PAYLOAD,2024-03-05 23:26:23,15.08845696,0.0001412,53.2182,318.0955,106.3308,253.784,-1.7753e-05,-5.71e-06,0.0,0 STARLINK-4762,1 53866U 22114BA  24065.97665680 -.00000571  00000-0 -17753-4 0  9994,2 53866  53.2182 318.0955 0001412 106.3308 253.7840 15.08845696 82620,6917.863,95.437,540.705,538.751,0.0
53866.0,STARLINK-4762,PAYLOAD,2024-03-06 20:06:24,15.08828993,0.0001486,53.2183,314.2296,116.5151,243.5994,0.00016227,2.295e-05,0.0,0 STARLINK-4762,1 53866U 22114BA  24066.83778451  .00002295  00000-0  16227-3 0  9998,2 53866  53.2183 314.2296 0001486 116.5151 243.5994 15.08828993 82210,6917.914,95.438,540.807,538.751,0.0
53866.0,STARLINK-4762,PAYLOAD,2024-03-07 08:49:29,15.08837002,0.0001274,53.218,311.8541,107.6569,252.4563,0.00012621,1.721e-05,0.0,0 STARLINK-4762,1 53866U 22114BA  24067.36770439  .00001721  00000-0  12621-3 0  9992,2 53866  53.2180 311.8541 0001274 107.6569 252.4563 15.08837002 82832,6917.89,95.438,540.636,538.873,0.0
53866.0,STARLINK-4762,PAYLOAD,2024-03-08 08:40:16,15.08843598,0.0001108,53.2171,307.392,94.4996,265.6122,0.00014856,2.078e-05,0.0,0 STARLINK-4762,1 53866U 22114BA  24068.36130279  .00002078  00000-0  14856-3 0  9993,2 53866  53.2171 307.3920 0001108  94.4996 265.6122 15.08843598 82447,6917.869,95.437,540.501,538.968,0.0
53866.0,STARLINK-4762,PAYLOAD,2024-03-08 22:58:45,15.08837054,0.0001278,53.2181,304.7166,96.3961,263.7177,0.00011819,1.593e-05,0.0,0 STARLINK-4762,1 53866U 22114BA  24068.95746831  .00001593  00000-0  11819-3 0  9992,2 53866  53.2181 304.7166 0001278  96.3961 263.7177 15.08837054 83071,6917.889,95.438,540.638,538.87,0.0
53866.0,STARLINK-4762,PAYLOAD,2024-03-09 02:09:31,15.08840488,0.0001398,53.2182,304.1203,88.5995,271.5157,0.00011457,1.536e-05,0.0,0 STARLINK-4762,1 53866U 22114BA  24069.08994654  .00001536  00000-0  11457-3 0  9990,2 53866  53.2182 304.1203 0001398  88.5995 271.5157 15.08840488 82553,6917.879,95.438,540.711,538.777,0.0
53866.0,STARLINK-4762,PAYLOAD,2024-03-09 08:31:03,15.08846425,0.0001436,53.2177,302.9314,84.8047,275.3109,0.00011985,1.62e-05,0.0,0 STARLINK-4762,1 53866U 22114BA  24069.35490232  .00001620  00000-0  11985-3 0  9993,2 53866  53.2177 302.9314 0001436  84.8047 275.3109 15.08846425 83137,6917.861,95.437,540.719,538.732,0.0
53866.0,STARLINK-4762,PAYLOAD,2024-03-10 08:21:50,15.08851582,0.0001055,53.2191,298.4713,83.4369,276.6743,0.00010642,1.407e-05,0.0,0 STARLINK-4762,1 53866U 22114BA  24070.34849737  .00001407  00000-0  10642-3 0  9994,2 53866  53.2191 298.4713 0001055  83.4369 276.6743 15.08851582 82748,6917.845,95.437,540.44,538.98,0.0
53866.0,STARLINK-4762,PAYLOAD,2024-03-10 21:04:56,15.08832225,0.0001349,53.2153,296.0912,88.2354,271.8792,-7.1572e-05,-1.427e-05,0.0,0 STARLINK-4762,1 53866U 22114BA  24070.87843579 -.00001427  00000-0 -71572-4 0  9994,2 53866  53.2153 296.0912 0001349  88.2354 271.8792 15.08832225 82827,6917.904,95.438,540.702,538.836,0.0
53866.0,STARLINK-4762,PAYLOAD,2024-03-10 22:40:19,15.08833458,0.0001446,53.2164,295.7944,87.6178,272.498,-5.0994e-05,-1.099e-05,0.0,0 STARLINK-4762,1 53866U 22114BA  24070.94467502 -.00001099  00000-0 -50994-4 0  9990,2 53866  53.2164 295.7944 0001446  87.6178 272.4980 15.08833458 83371,6917.9,95.438,540.766,538.765,0.0
53866.0,STARLINK-4762,PAYLOAD,2024-03-11 08:12:38,15.0884209,0.000141,53.2163,294.0098,87.0732,273.0421,2.8413e-05,1.64e-06,0.0,0 STARLINK-4762,1 53866U 22114BA  24071.34210790  .00000164  00000-0  28413-4 0  9991,2 53866  53.2163 294.0098 0001410  87.0732 273.0421 15.08842090 82898,6917.874,95.437,540.714,538.764,0.0
53866.0,STARLINK-4762,PAYLOAD,2024-03-12 08:03:23,15.08889297,0.0001563,53.2168,289.5485,78.8226,281.2942,-0.0004993,-8.236e-05,0.0,0 STARLINK-4762,1 53866U 22114BA  24072.33568588 -.00008236  00000-0 -49930-3 0  9998,2 53866  53.2168 289.5485 0001563  78.8226 281.2942 15.08889297 83044,6917.73,95.434,540.676,538.513,0.0
53866.0,STARLINK-4762,PAYLOAD,2024-03-12 23:57:16,15.08839717,0.0001864,53.2157,286.5738,100.8294,259.2908,0.00011693,1.573e-05,0.0,0 STARLINK-4762,1 53866U 22114BA  24072.99810984  .00001573  00000-0  11693-3 0  9990,2 53866  53.2157 286.5738 0001864 100.8294 259.2908 15.08839717 83145,6917.881,95.438,541.036,538.457,0.0
53866.0,STARLINK-4762,PAYLOAD,2024-03-13 20:37:17,15.08839675,0.0001,53.214,282.7067,90.3933,269.7173,9.1442e-05,1.168e-05,0.0,0 STARLINK-4762,1 53866U 22114BA  24073.85923001  .00001168  00000-0  91442-4 0  9992,2 53866  53.2140 282.7067 0001000  90.3933 269.7173 15.08839675 83812,6917.881,95.438,540.438,539.055,0.0
53866.0,STARLINK-4762,PAYLOAD,2024-03-13 23:48:03,15.08843267,0.0001271,53.2155,282.1128,94.7419,265.3718,3.3863e-05,2.51e-06,0.0,0 STARLINK-4762,1 53866U 22114BA  24073.99170908  .00000251  00000-0  33863-4 0  9992,2 53866  53.2155 282.1128 0001271  94.7419 265.3718 15.08843267 83838,6917.87,95.437,540.615,538.856,0.0
53866.0,STARLINK-4762,PAYLOAD,2024-03-14 20:28:04,15.08837921,0.0001253,53.216,278.2468,84.7213,275.3922,0.00010919,1.45e-05,0.0,0 STARLINK-4762,1 53866U 22114BA  24074.85283083  .00001450  00000-0  10919-3 0  9995,2 53866  53.2160 278.2468 0001253  84.7213 275.3922 15.08837921 83421,6917.887,95.438,540.619,538.885,0.0
53866.0,STARLINK-4762,PAYLOAD,2024-03-14 22:03:27,15.0883869,0.0001339,53.2168,277.9498,85.9677,274.1468,0.00011017,1.466e-05,0.0,0 STARLINK-4762,1 53866U 22114BA  24074.91907055  .00001466  00000-0  11017-3 0  9991,2 53866  53.2168 277.9498 0001339  85.9677 274.1468 15.08838690 83976,6917.884,95.438,540.676,538.823,0.0
53866.0,STARLINK-4762,PAYLOAD,2024-03-15 13:57:19,15.08836909,0.0001471,53.2173,274.9768,87.6095,272.5066,9.0304e-05,1.149e-05,0.0,0 STARLINK-4762,1 53866U 22114BA  24075.58147411  .00001149  00000-0  90304-4 0  9992,2 53866  53.2173 274.9768 0001471  87.6095 272.5066 15.08836909 84078,6917.89,95.438,540.772,538.737,0.0
53866.0,STARLINK-4762,PAYLOAD,2024-03-16 13:48:06,15.08835671,0.0001358,53.2169,270.5179,96.2797,263.8349,8.4861e-05,1.063e-05,0.0,0 STARLINK-4762,1 53866U 22114BA  24076.57507732  .00001063  00000-0  84861-4 0  9994,2 53866  53.2169 270.5179 0001358  96.2797 263.8349 15.08835671 84229,6917.894,95.438,540.698,538.819,0.0
53866.0,STARLINK-4762,PAYLOAD,2024-03-16 20:09:39,15.08837997,0.0001338,53.2164,269.3289,92.9682,267.1463,8.8261e-05,1.117e-05,0.0,0 STARLINK-4762,1 53866U 22114BA  24076.84003666  .00001117  00000-0  88261-4 0  9999,2 53866  53.2164 269.3289 0001338  92.9682 267.1463 15.08837997 83727,6917.887,95.438,540.677,538.826,0.0
